start=new Date('2022-02-18T00:00:00.000Z').valueOf();
sats=[{"TIME_SYSTEM":"UTC","FILE":"3305402","ELEMENT_SET_NO":"999","COUNTRY_CODE":"US","CENTER_NAME":"EARTH","ECCENTRICITY":"0.00016430","REF_FRAME":"TEME","DECAY_DATE":null,"TLE_LINE2":"2 47383  53.0545 190.1104 0001643  70.2886 289.8280 15.06396583 60380","REV_AT_EPOCH":"6038","OBJECT_TYPE":"PAYLOAD","RA_OF_ASC_NODE":"190.1104","MEAN_MOTION_DDOT":"0.0000000000000","MEAN_MOTION":"15.06396583","TLE_LINE1":"1 47383U 21005AL  22048.68483561  .00001722  00000-0  13449-3 0  9996","LAUNCH_DATE":"2021-01-20","GP_ID":"196242844","INCLINATION":"53.0545","APOAPSIS":"548.362","MEAN_MOTION_DOT":"0.00001722","ARG_OF_PERICENTER":"70.2886","BSTAR":"0.00013449000000","OBJECT_ID":"2021-005AL","SEMIMAJOR_AXIS":"6925.359","MEAN_ELEMENT_THEORY":"SGP4","EPHEMERIS_TYPE":"0","RCS_SIZE":"LARGE","PERIOD":"95.592","SITE":"AFETR","NORAD_CAT_ID":"47383","MEAN_ANOMALY":"289.8280","CLASSIFICATION_TYPE":"U","OBJECT_NAME":"STARLINK-2103","PERIAPSIS":"546.086","EPOCH":"2022-02-17T16:26:09.796704"},{"RA_OF_ASC_NODE":"200.0720","MEAN_MOTION_DDOT":"0.0000000000000","OBJECT_TYPE":"PAYLOAD","REV_AT_EPOCH":"6024","TLE_LINE2":"2 47384  53.0548 200.0720 0001360  71.3232 288.7905 15.06399166 60249","DECAY_DATE":null,"REF_FRAME":"TEME","ECCENTRICITY":"0.00013600","CENTER_NAME":"EARTH","COUNTRY_CODE":"US","FILE":"3305402","ELEMENT_SET_NO":"999","TIME_SYSTEM":"UTC","OBJECT_NAME":"STARLINK-2104","PERIAPSIS":"546.274","EPOCH":"2022-02-17T16:40:45.897024","NORAD_CAT_ID":"47384","CLASSIFICATION_TYPE":"U","MEAN_ANOMALY":"288.7905","PERIOD":"95.592","EPHEMERIS_TYPE":"0","RCS_SIZE":"LARGE","SITE":"AFETR","SEMIMAJOR_AXIS":"6925.351","MEAN_ELEMENT_THEORY":"SGP4","BSTAR":"0.00000763480000","OBJECT_ID":"2021-005AM","ARG_OF_PERICENTER":"71.3232","MEAN_MOTION_DOT":"-0.00000168","GP_ID":"196243595","INCLINATION":"53.0548","APOAPSIS":"548.158","LAUNCH_DATE":"2021-01-20","MEAN_MOTION":"15.06399166","TLE_LINE1":"1 47384U 21005AM  22048.69497566 -.00000168  00000-0  76348-5 0  9991"},{"CENTER_NAME":"EARTH","COUNTRY_CODE":"US","REF_FRAME":"TEME","ECCENTRICITY":"0.00014340","TIME_SYSTEM":"UTC","FILE":"3305402","ELEMENT_SET_NO":"999","MEAN_MOTION_DDOT":"0.0000000000000","RA_OF_ASC_NODE":"199.6809","TLE_LINE2":"2 47385  53.0542 199.6809 0001434  66.7086 293.4054 15.06408302 60254","REV_AT_EPOCH":"6025","DECAY_DATE":null,"OBJECT_TYPE":"PAYLOAD","MEAN_MOTION_DOT":"-0.00000701","BSTAR":"-0.00002816200000","ARG_OF_PERICENTER":"66.7086","OBJECT_ID":"2021-005AN","LAUNCH_DATE":"2021-01-20","TLE_LINE1":"1 47385U 21005AN  22048.78069021 -.00000701  00000-0 -28162-4 0  9997","MEAN_MOTION":"15.06408302","INCLINATION":"53.0542","APOAPSIS":"548.181","GP_ID":"196243846","CLASSIFICATION_TYPE":"U","MEAN_ANOMALY":"293.4054","NORAD_CAT_ID":"47385","PERIAPSIS":"546.195","EPOCH":"2022-02-17T18:44:11.634144","OBJECT_NAME":"STARLINK-2105","MEAN_ELEMENT_THEORY":"SGP4","SEMIMAJOR_AXIS":"6925.323","SITE":"AFETR","PERIOD":"95.592","EPHEMERIS_TYPE":"0","RCS_SIZE":"LARGE"},{"SEMIMAJOR_AXIS":"6925.338","MEAN_ELEMENT_THEORY":"SGP4","SITE":"AFETR","EPHEMERIS_TYPE":"0","RCS_SIZE":"LARGE","PERIOD":"95.592","MEAN_ANOMALY":"291.1465","CLASSIFICATION_TYPE":"U","NORAD_CAT_ID":"47386","EPOCH":"2022-02-17T21:02:12.446880","PERIAPSIS":"546.073","OBJECT_NAME":"STARLINK-2106","MEAN_MOTION":"15.06403372","TLE_LINE1":"1 47386U 21005AP  22048.87653295  .00005739  00000-0  40380-3 0  9999","LAUNCH_DATE":"2021-01-20","APOAPSIS":"548.333","INCLINATION":"53.0524","GP_ID":"196244096","MEAN_MOTION_DOT":"0.00005739","BSTAR":"0.00040380000000","OBJECT_ID":"2021-005AP","ARG_OF_PERICENTER":"68.9699","DECAY_DATE":null,"TLE_LINE2":"2 47386  53.0524 199.2535 0001632  68.9699 291.1465 15.06403372 60276","REV_AT_EPOCH":"6027","OBJECT_TYPE":"PAYLOAD","MEAN_MOTION_DDOT":"0.0000000000000","RA_OF_ASC_NODE":"199.2535","TIME_SYSTEM":"UTC","ELEMENT_SET_NO":"999","FILE":"3305402","COUNTRY_CODE":"US","CENTER_NAME":"EARTH","ECCENTRICITY":"0.00016320","REF_FRAME":"TEME"},{"FILE":"3305402","ELEMENT_SET_NO":"999","TIME_SYSTEM":"UTC","REF_FRAME":"TEME","ECCENTRICITY":"0.00018100","CENTER_NAME":"EARTH","COUNTRY_CODE":"US","OBJECT_TYPE":"PAYLOAD","TLE_LINE2":"2 47387  53.0532 229.3163 0001810  75.9864 284.1326 15.06396618 59841","DECAY_DATE":null,"REV_AT_EPOCH":"5984","MEAN_MOTION_DDOT":"0.0000000000000","RA_OF_ASC_NODE":"229.3163","APOAPSIS":"548.477","INCLINATION":"53.0532","GP_ID":"196243345","LAUNCH_DATE":"2021-01-20","TLE_LINE1":"1 47387U 21005AQ  22048.86271593 -.00000440  00000-0 -10652-4 0  9992","MEAN_MOTION":"15.06396618","ARG_OF_PERICENTER":"75.9864","OBJECT_ID":"2021-005AQ","BSTAR":"-0.00001065200000","MEAN_MOTION_DOT":"-0.00000440","SITE":"AFETR","PERIOD":"95.592","EPHEMERIS_TYPE":"0","RCS_SIZE":"LARGE","MEAN_ELEMENT_THEORY":"SGP4","SEMIMAJOR_AXIS":"6925.359","EPOCH":"2022-02-17T20:42:18.656352","PERIAPSIS":"545.970","OBJECT_NAME":"STARLINK-2108","CLASSIFICATION_TYPE":"U","MEAN_ANOMALY":"284.1326","NORAD_CAT_ID":"47387"},{"OBJECT_TYPE":"PAYLOAD","TLE_LINE2":"2 47388  53.0529 229.2505 0001651  63.0634 297.0523 15.06403816 59844","REV_AT_EPOCH":"5984","DECAY_DATE":null,"RA_OF_ASC_NODE":"229.2505","MEAN_MOTION_DDOT":"0.0000000000000","FILE":"3305402","ELEMENT_SET_NO":"999","TIME_SYSTEM":"UTC","REF_FRAME":"TEME","ECCENTRICITY":"0.00016510","CENTER_NAME":"EARTH","COUNTRY_CODE":"US","PERIOD":"95.592","EPHEMERIS_TYPE":"0","RCS_SIZE":"LARGE","SITE":"AFETR","SEMIMAJOR_AXIS":"6925.337","MEAN_ELEMENT_THEORY":"SGP4","OBJECT_NAME":"STARLINK-2109","PERIAPSIS":"546.058","EPOCH":"2022-02-17T21:03:32.718528","NORAD_CAT_ID":"47388","CLASSIFICATION_TYPE":"U","MEAN_ANOMALY":"297.0523","GP_ID":"196243095","APOAPSIS":"548.345","INCLINATION":"53.0529","LAUNCH_DATE":"2021-01-20","TLE_LINE1":"1 47388U 21005AR  22048.87746202  .00001577  00000-0  12471-3 0  9998","MEAN_MOTION":"15.06403816","ARG_OF_PERICENTER":"63.0634","OBJECT_ID":"2021-005AR","BSTAR":"0.00012471000000","MEAN_MOTION_DOT":"0.00001577"},{"SEMIMAJOR_AXIS":"6925.341","MEAN_ELEMENT_THEORY":"SGP4","EPHEMERIS_TYPE":"0","RCS_SIZE":"LARGE","PERIOD":"95.592","SITE":"AFETR","NORAD_CAT_ID":"47389","MEAN_ANOMALY":"285.3476","CLASSIFICATION_TYPE":"U","OBJECT_NAME":"STARLINK-2110","EPOCH":"2022-02-17T20:34:19.888032","PERIAPSIS":"546.156","TLE_LINE1":"1 47389U 21005AS  22048.85717463  .00000282  00000-0  37816-4 0  9997","MEAN_MOTION":"15.06402621","LAUNCH_DATE":"2021-01-20","GP_ID":"196244347","INCLINATION":"53.0562","APOAPSIS":"548.255","MEAN_MOTION_DOT":"0.00000282","OBJECT_ID":"2021-005AS","ARG_OF_PERICENTER":"74.7681","BSTAR":"0.00003781600000","TLE_LINE2":"2 47389  53.0562 209.3357 0001516  74.7681 285.3476 15.06402621 60120","REV_AT_EPOCH":"6012","DECAY_DATE":null,"OBJECT_TYPE":"PAYLOAD","RA_OF_ASC_NODE":"209.3357","MEAN_MOTION_DDOT":"0.0000000000000","TIME_SYSTEM":"UTC","ELEMENT_SET_NO":"999","FILE":"3305402","COUNTRY_CODE":"US","CENTER_NAME":"EARTH","ECCENTRICITY":"0.00015160","REF_FRAME":"TEME"},{"OBJECT_TYPE":"PAYLOAD","TLE_LINE2":"2 47390  53.0545 229.6531 0001506  73.1998 286.9156 15.06398374 59832","DECAY_DATE":null,"REV_AT_EPOCH":"5983","MEAN_MOTION_DDOT":"0.0000000000000","RA_OF_ASC_NODE":"229.6531","FILE":"3305402","ELEMENT_SET_NO":"999","TIME_SYSTEM":"UTC","REF_FRAME":"TEME","ECCENTRICITY":"0.00015060","CENTER_NAME":"EARTH","COUNTRY_CODE":"US","SITE":"AFETR","PERIOD":"95.592","EPHEMERIS_TYPE":"0","RCS_SIZE":"LARGE","MEAN_ELEMENT_THEORY":"SGP4","SEMIMAJOR_AXIS":"6925.354","EPOCH":"2022-02-17T18:50:50.602560","PERIAPSIS":"546.176","OBJECT_NAME":"STARLINK-2111","CLASSIFICATION_TYPE":"U","MEAN_ANOMALY":"286.9156","NORAD_CAT_ID":"47390","INCLINATION":"53.0545","APOAPSIS":"548.261","GP_ID":"196244597","LAUNCH_DATE":"2021-01-20","MEAN_MOTION":"15.06398374","TLE_LINE1":"1 47390U 21005AT  22048.78530790  .00000229  00000-0  34271-4 0  9990","ARG_OF_PERICENTER":"73.1998","OBJECT_ID":"2021-005AT","BSTAR":"0.00003427100000","MEAN_MOTION_DOT":"0.00000229"},{"FILE":"3305402","ELEMENT_SET_NO":"999","TIME_SYSTEM":"UTC","ECCENTRICITY":"0.00015590","REF_FRAME":"TEME","COUNTRY_CODE":"US","CENTER_NAME":"EARTH","OBJECT_TYPE":"PAYLOAD","DECAY_DATE":null,"TLE_LINE2":"2 47391  53.0561 199.3051 0001559  69.4843 290.6313 15.06393713 60264","REV_AT_EPOCH":"6026","RA_OF_ASC_NODE":"199.3051","MEAN_MOTION_DDOT":"0.0000000000000","GP_ID":"196242845","INCLINATION":"53.0561","APOAPSIS":"548.312","TLE_LINE1":"1 47391U 21005AU  22048.86084133  .00000693  00000-0  65395-4 0  9991","MEAN_MOTION":"15.06393713","LAUNCH_DATE":"2021-01-20","ARG_OF_PERICENTER":"69.4843","OBJECT_ID":"2021-005AU","BSTAR":"0.00006539500000","MEAN_MOTION_DOT":"0.00000693","RCS_SIZE":"LARGE","EPHEMERIS_TYPE":"0","PERIOD":"95.593","SITE":"AFETR","SEMIMAJOR_AXIS":"6925.368","MEAN_ELEMENT_THEORY":"SGP4","OBJECT_NAME":"STARLINK-2112","EPOCH":"2022-02-17T20:39:36.690912","PERIAPSIS":"546.153","NORAD_CAT_ID":"47391","MEAN_ANOMALY":"290.6313","CLASSIFICATION_TYPE":"U"},{"TIME_SYSTEM":"UTC","ELEMENT_SET_NO":"999","FILE":"3305402","CENTER_NAME":"EARTH","COUNTRY_CODE":"US","REF_FRAME":"TEME","ECCENTRICITY":"0.00014290","TLE_LINE2":"2 47392  53.0547 199.9010 0001429  76.6382 283.4766 15.06408576 60248","REV_AT_EPOCH":"6024","DECAY_DATE":null,"OBJECT_TYPE":"PAYLOAD","RA_OF_ASC_NODE":"199.9010","MEAN_MOTION_DDOT":"0.0000000000000","LAUNCH_DATE":"2021-01-20","MEAN_MOTION":"15.06408576","TLE_LINE1":"1 47392U 21005AV  22048.72908100  .00000736  00000-0  68286-4 0  9996","GP_ID":"196243596","APOAPSIS":"548.177","INCLINATION":"53.0547","MEAN_MOTION_DOT":"0.00000736","ARG_OF_PERICENTER":"76.6382","OBJECT_ID":"2021-005AV","BSTAR":"0.00006828600000","MEAN_ELEMENT_THEORY":"SGP4","SEMIMAJOR_AXIS":"6925.322","PERIOD":"95.592","RCS_SIZE":"LARGE","EPHEMERIS_TYPE":"0","SITE":"AFETR","NORAD_CAT_ID":"47392","CLASSIFICATION_TYPE":"U","MEAN_ANOMALY":"283.4766","OBJECT_NAME":"STARLINK-2113","EPOCH":"2022-02-17T17:29:52.598400","PERIAPSIS":"546.198"}];
